[{"OBJECT_NAME":"STARLINK-5878","OBJECT_ID":"2023-037AT","EPOCH":"2026-03-09T23:11:06.774432","MEAN_MOTION":14.98332254,"ECCENTRICITY":0.00025462,"INCLINATION":69.9981,"RA_OF_ASC_NODE":263.7959,"ARG_OF_PERICENTER":271.1445,"MEAN_ANOMALY":88.9423,"EPHEMERIS_TYPE":0,"CLASSIFICATION_TYPE":"U","NORAD_CAT_ID":55955,"ELEMENT_SET_NO":999,"REV_AT_EPOCH":16451,"BSTAR":-8.99554e-7,"MEAN_MOTION_DOT":-1.04e-6,"MEAN_MOTION_DDOT":0},{"OBJECT_NAME":"ATLAS 5 CENTAUR R\/B","OBJECT_ID":"2015-058Q","EPOCH":"2026-03-09T09:58:43.980384","MEAN_MOTION":15.0421101,"ECCENTRICITY":0.01083886,"INCLINATION":64.7668,"RA_OF_ASC_NODE":96.662,"ARG_OF_PERICENTER":94.2862,"MEAN_ANOMALY":267.0651,"EPHEMERIS_TYPE":0,"CLASSIFICATION_TYPE":"U","NORAD_CAT_ID":40978,"ELEMENT_SET_NO":999,"REV_AT_EPOCH":10021,"BSTAR":0.00034608892,"MEAN_MOTION_DOT":5.305e-5,"MEAN_MOTION_DDOT":0}]
